QZS-1R                  
1 49336U 21096A   24099.32524545 -.00000217  00000+0  00000+0 0  9996
2 49336  35.8012  91.5833 0751598 270.1158  87.1680  1.00282807  8998
